{
    "links": {
        "self": "http://www.neowsapp.com/rest/v1/neo/3763943?api_key=iIulBulltgU6a56xZRHN4H3l9WmuAYTsLGpBGhQ2"
    },
    "id": "3763943",
    "neo_reference_id": "3763943",
    "name": "(2016 WS)",
    "designation": "2016 WS",
    "nasa_jpl_url": "http://ssd.jpl.nasa.gov/sbdb.cgi?sstr=3763943",
    "absolute_magnitude_h": 24.6,
    "estimated_diameter": {
        "kilometers": {
            "estimated_diameter_min": 0.0319561887,
            "estimated_diameter_max": 0.0714562102
        },
        "meters": {
            "estimated_diameter_min": 31.9561886721,
            "estimated_diameter_max": 71.4562101727
        },
        "miles": {
            "estimated_diameter_min": 0.0198566489,
            "estimated_diameter_max": 0.0444008168
        },
        "feet": {
            "estimated_diameter_min": 104.8431420431,
            "estimated_diameter_max": 234.436392583
        }
    },
    "is_potentially_hazardous_asteroid": false,
    "close_approach_data": [
        {
            "close_approach_date": "2016-11-29",
            "close_approach_date_full": "2016-Nov-29 21:04",
            "epoch_date_close_approach": 1480453440000,
            "relative_velocity": {
                "kilometers_per_second": "5.3804134443",
                "kilometers_per_hour": "19369.4883995289",
                "miles_per_hour": "12035.446833585"
            },
            "miss_distance": {
                "astronomical": "0.1322540602",
                "lunar": "51.4468294178",
                "kilometers": "19784925.704771774",
                "miles": "12293782.7626635212"
            },
            "orbiting_body": "Earth"
        },
        {
            "close_approach_date": "2120-11-07",
            "close_approach_date_full": "2120-Nov-07 03:56",
            "epoch_date_close_approach": 4760394960000,
            "relative_velocity": {
                "kilometers_per_second": "10.9819253397",
                "kilometers_per_hour": "39534.9312229452",
                "miles_per_hour": "24565.4687923906"
            },
            "miss_distance": {
                "astronomical": "0.2344534722",
                "lunar": "91.2024006858",
                "kilometers": "35073740.055224214",
                "miles": "21793811.4778495932"
            },
            "orbiting_body": "Earth"
        }
    ],
    "orbital_data": {
        "orbit_id": "12",
        "orbit_determination_date": "2017-04-06 08:22:07",
        "first_observation_date": "2016-11-18",
        "last_observation_date": "2017-01-01",
        "data_arc_in_days": 44,
        "observations_used": 66,
        "orbit_uncertainty": "7",
        "minimum_orbit_intersection": ".122905",
        "jupiter_tisserand_invariant": "3.254",
        "epoch_osculation": "2459000.5",
        "eccentricity": ".5512156218597002",
        "semi_major_axis": "2.469698611898958",
        "inclination": "4.15850179734486",
        "ascending_node_longitude": "64.3713930434035",
        "orbital_period": "1417.634792259128",
        "perihelion_distance": "1.108362155735035",
        "perihelion_argument": "5.669650661131509",
        "aphelion_distance": "3.83103506806288",
        "perihelion_time": "2459150.775377723130",
        "mean_anomaly": "321.8384535454898",
        "mean_motion": ".2539441060319265",
        "equinox": "J2000",
        "orbit_class": {
            "orbit_class_type": "AMO",
            "orbit_class_description": "Near-Earth asteroid orbits similar to that of 1221 Amor",
            "orbit_class_range": "1.017 AU < q (perihelion) < 1.3 AU"
        }
    },
    "is_sentry_object": false
}